[{"OBJECT_NAME":"STARLINK-4635","OBJECT_ID":"2022-125C","EPOCH":"2026-03-09T16:57:55.167264","MEAN_MOTION":15.08840702,"ECCENTRICITY":0.00014519,"INCLINATION":53.2169,"RA_OF_ASC_NODE":224.1188,"ARG_OF_PERICENTER":94.1506,"MEAN_ANOMALY":265.9652,"EPHEMERIS_TYPE":0,"CLASSIFICATION_TYPE":"U","NORAD_CAT_ID":53966,"ELEMENT_SET_NO":999,"REV_AT_EPOCH":18932,"BSTAR":7.7648904e-5,"MEAN_MOTION_DOT":9.48e-6,"MEAN_MOTION_DDOT":0},{"OBJECT_NAME":"POSAT-2","OBJECT_ID":"2025-009DR","EPOCH":"2026-03-09T23:15:20.314368","MEAN_MOTION":15.10404492,"ECCENTRICITY":0.00077103,"INCLINATION":97.4906,"RA_OF_ASC_NODE":146.0095,"ARG_OF_PERICENTER":126.4226,"MEAN_ANOMALY":233.7715,"EPHEMERIS_TYPE":0,"CLASSIFICATION_TYPE":"U","NORAD_CAT_ID":63488,"ELEMENT_SET_NO":999,"REV_AT_EPOCH":5165,"BSTAR":0.0010942248,"MEAN_MOTION_DOT":0.00017957,"MEAN_MOTION_DDOT":0}]
